*******************************************************************************
JPL/HORIZONS                3169 Ostro (1981 LA)           2023-Sep-04 11:22:06
Rec #:    3169 (+COV) Soln.date: 2023-Aug-23_07:33:12  # obs: 12875 (1953-2023)
 
IAU76/J2000 helio. ecliptic osc. elements (au, days, deg., period=Julian yrs):
 
  EPOCH=  2457872.5 ! 2017-Apr-29.00 (TDB)         Residual RMS= .21628
   EC= .06687553156532586  QR= 1.765509636133601   TP= 2457682.8171340702
   OM= 96.38171089113453   W=  32.71679175991451   IN= 24.90339774480681
   A= 1.892040875420684    MA= 71.83505105790407   ADIST= 2.018572114707767
   PER= 2.60258            N= .378711333           ANGMOM= .02360877
   DAN= 1.78324            DDN= 1.99588            L= 126.6098397
   B= 13.1554277           MOID= .79482102         TP= 2016-Oct-21.3171340702
 
Asteroid physical parameters (km, seconds, rotational period in hours):
   GM= n.a.                RAD= 2.331              ROTPER= 6.503
   H= 12.75                G= .150                 B-V= .771
                           ALBEDO= .960            STYP= Xe

ASTEROID comments: 
1: soln ref.= JPL#70, OCC=0
2: source=ORB
*******************************************************************************


*******************************************************************************
Ephemeris / API_USER Mon Sep  4 11:22:06 2023 Pasadena, USA      / Horizons
*******************************************************************************
Target body name: 3169 Ostro (1981 LA)            {source: JPL#70}
Center body name: Solar System Barycenter (0)     {source: DE441}
Center-site name: BODY CENTER
*******************************************************************************
Start time      : A.D. 2023-Aug-12 00:00:00.0000 TDB
Stop  time      : A.D. 2023-Aug-13 00:00:00.0000 TDB
Step-size       : 2880 minutes
*******************************************************************************
Center geodetic : 0.0, 0.0, 0.0                   {E-lon(deg),Lat(deg),Alt(km)}
Center cylindric: 0.0, 0.0, 0.0                   {E-lon(deg),Dxy(km),Dz(km)}
Center radii    : (undefined)
Small perturbers: Yes                             {source: SB441-N16}
Output units    : KM-S
Calendar mode   : Mixed Julian/Gregorian
Output type     : GEOMETRIC cartesian states
Output format   : 2 (position and velocity)
Reference frame : Ecliptic of J2000.0
*******************************************************************************
Initial IAU76/J2000 heliocentric ecliptic osculating elements (au, days, deg.):
  EPOCH=  2457872.5 ! 2017-Apr-29.00 (TDB)         Residual RMS= .21628        
   EC= .06687553156532586  QR= 1.765509636133601   TP= 2457682.8171340702      
   OM= 96.38171089113453   W=  32.71679175991451   IN= 24.90339774480681       
  Equivalent ICRF heliocentric cartesian coordinates (au, au/d):
   X=-1.477337126030235E+00  Y=-1.084123230731854E+00  Z= 3.216406302181686E-01
  VX= 4.939914217663413E-03 VY=-9.971094103537576E-03 VZ=-6.154924126751174E-03
Asteroid physical parameters (km, seconds, rotational period in hours):        
   GM= n.a.                RAD= 2.331              ROTPER= 6.503               
   H= 12.75                G= .150                 B-V= .771                   
                           ALBEDO= .960            STYP= Xe                    
*******************************************************************************
JDTDB
   X     Y     Z
   VX    VY    VZ
*******************************************************************************
$$SOE
2460168.500000000 = A.D. 2023-Aug-12 00:00:00.0000 TDB 
 X = 2.615696917075060E+08 Y =-7.626329820702597E+07 Z =-1.173367219051980E+08
 VX= 3.614021928217419E+00 VY= 2.004292848458326E+01 VZ=-2.695453872631541E+00
$$EOE
*******************************************************************************
 
TIME

  Barycentric Dynamical Time ("TDB" or T_eph) output was requested. This
continuous coordinate time is equivalent to the relativistic proper time
of a clock at rest in a reference frame co-moving with the solar system
barycenter but outside the system's gravity well. It is the independent
variable in the solar system relativistic equations of motion.

  TDB runs at a uniform rate of one SI second per second and is independent
of irregularities in Earth's rotation.
 
CALENDAR SYSTEM

  Mixed calendar mode was active such that calendar dates after AD 1582-Oct-15
(if any) are in the modern Gregorian system. Dates prior to 1582-Oct-5 (if any)
are in the Julian calendar system, which is automatically extended for dates
prior to its adoption on 45-Jan-1 BC.  The Julian calendar is useful for
matching historical dates. The Gregorian calendar more accurately corresponds
to the Earth's orbital motion and seasons. A "Gregorian-only" calendar mode is
available if such physical events are the primary interest.

REFERENCE FRAME AND COORDINATES

  Ecliptic at the standard reference epoch

    Reference epoch: J2000.0
    X-Y plane: adopted Earth orbital plane at the reference epoch
               Note: IAU76 obliquity of 84381.448 arcseconds wrt ICRF X-Y plane
    X-axis   : ICRF
    Z-axis   : perpendicular to the X-Y plane in the directional (+ or -) sense
               of Earth's north pole at the reference epoch.

  Symbol meaning:

    JDTDB    Julian Day Number, Barycentric Dynamical Time
      X      X-component of position vector (km)
      Y      Y-component of position vector (km)
      Z      Z-component of position vector (km)
      VX     X-component of velocity vector (km/sec)                           
      VY     Y-component of velocity vector (km/sec)                           
      VZ     Z-component of velocity vector (km/sec)                           

ABERRATIONS AND CORRECTIONS

 Geometric state vectors have NO corrections or aberrations applied.

Computations by ...

    Solar System Dynamics Group, Horizons On-Line Ephemeris System
    4800 Oak Grove Drive, Jet Propulsion Laboratory
    Pasadena, CA  91109   USA

    General site: https://ssd.jpl.nasa.gov/
    Mailing list: https://ssd.jpl.nasa.gov/email_list.html
    System news : https://ssd.jpl.nasa.gov/horizons/news.html
    User Guide  : https://ssd.jpl.nasa.gov/horizons/manual.html
    Connect     : browser        https://ssd.jpl.nasa.gov/horizons/app.html#/x
                  API            https://ssd-api.jpl.nasa.gov/doc/horizons.html
                  command-line   telnet ssd.jpl.nasa.gov 6775
                  e-mail/batch   https://ssd.jpl.nasa.gov/ftp/ssd/hrzn_batch.txt
                  scripts        https://ssd.jpl.nasa.gov/ftp/ssd/SCRIPTS
    Author      : Jon.D.Giorgini@jpl.nasa.gov
*******************************************************************************
